STARLINK-35655          
1 66470U 25262Q   25330.00006944 -.01405062  00000+0 -63554-2 0  9990
2 66470  42.9981 170.6030 0001705 281.3668 193.4228 15.85895289  2946
STARLINK-35569          
1 66471U 25262R   25330.54665726  .00556104  00000+0  21023-2 0  9995
2 66471  42.9976 167.2299 0006507 214.3451 145.7002 15.85472550  3034
STARLINK-35567          
1 66472U 25262S   25330.60883417 -.00089361  00000+0 -38559-3 0  9993
2 66472  42.9975 166.8351 0005329 288.5961  71.4332 15.84101701  3046
STARLINK-35568          
1 66473U 25262T   25330.60840283  .00630519  00000+0  23956-2 0  9997
2 66473  42.9975 166.8316 0007443 236.5915 123.4246 15.85183028  3044
STARLINK-35620          
1 66474U 25262U   25330.60800521  .00547401  00000+0  20349-2 0  9999
2 66474  42.9975 166.8280 0009457 234.7801 125.2187 15.85813573  3045
STARLINK-35538          
1 66475U 25262V   25330.60757229  .00284761  00000+0  11917-2 0  9994
2 66475  42.9975 166.8238 0005161 284.4931  75.5369 15.84026796  3044
STARLINK-35372          
1 66476U 25262W   25330.60716527  .00583423  00000+0  22317-2 0  9994
2 66476  42.9971 166.8207 0007220 236.7048 123.3133 15.85156815  2939
STARLINK-35354          
1 66477U 25262X   25330.60621544  .00100522  00000+0  43193-3 0  9990
2 66477  42.9974 166.8127 0004753 286.2442  73.7908 15.83991707  3046
STARLINK-35283          
1 66478U 25262Y   25330.60576320  .00627891  00000+0  23901-2 0  9999
2 66478  42.9970 166.8083 0007416 223.9768 136.0515 15.85149864  3040
STARLINK-35581          
1 66479U 25262Z   25330.60669382  .00556753  00000+0  21398-2 0  9997
2 66479  42.9970 166.8168 0007333 239.5463 120.4686 15.85121494  3043
STARLINK-35670          
1 66480U 25262AA  25330.60535992  .00462708  00000+0  17808-2 0  9995
2 66480  42.9972 166.8050 0008160 225.3035 134.7174 15.85311775  3047
STARLINK-35698          
1 66481U 25262AB  25330.60491237  .00260689  00000+0  11000-2 0  9991
2 66481  42.9971 166.8006 0004414 284.5142  75.5241 15.83919246  3044
