CCSDS_OMM_VERS = 2.0
CREATION_DATE  = 
ORIGINATOR     = 

OBJECT_NAME    = STARLINK-35655
OBJECT_ID      = 2025-262Q
CENTER_NAME    = EARTH
REF_FRAME      = TEME
TIME_SYSTEM    = UTC
MEAN_ELEMENT_THEORY = SGP/SGP4

EPOCH          = 2025-11-26T00:00:05.999616
MEAN_MOTION    = 15.85895289
ECCENTRICITY   = .00017053
INCLINATION    = 42.9981
RA_OF_ASC_NODE = 170.6030
ARG_OF_PERICENTER = 281.3668
MEAN_ANOMALY   = 193.4228

EPHEMERIS_TYPE = 0
CLASSIFICATION_TYPE = U
NORAD_CAT_ID   = 66470
ELEMENT_SET_NO = 999
REV_AT_EPOCH   = 294
BSTAR          = -.6355385E-2
MEAN_MOTION_DOT = -.1405062E-1
MEAN_MOTION_DDOT = 0

CCSDS_OMM_VERS = 2.0
CREATION_DATE  = 
ORIGINATOR     = 

OBJECT_NAME    = STARLINK-35569
OBJECT_ID      = 2025-262R
CENTER_NAME    = EARTH
REF_FRAME      = TEME
TIME_SYSTEM    = UTC
MEAN_ELEMENT_THEORY = SGP/SGP4

EPOCH          = 2025-11-26T13:07:11.187264
MEAN_MOTION    = 15.85472550
ECCENTRICITY   = .0006508
INCLINATION    = 42.9976
RA_OF_ASC_NODE = 167.2299
ARG_OF_PERICENTER = 214.3451
MEAN_ANOMALY   = 145.7002

EPHEMERIS_TYPE = 0
CLASSIFICATION_TYPE = U
NORAD_CAT_ID   = 66471
ELEMENT_SET_NO = 999
REV_AT_EPOCH   = 303
BSTAR          = .21023E-2
MEAN_MOTION_DOT = .556104E-2
MEAN_MOTION_DDOT = 0

CCSDS_OMM_VERS = 2.0
CREATION_DATE  = 
ORIGINATOR     = 

OBJECT_NAME    = STARLINK-35567
OBJECT_ID      = 2025-262S
CENTER_NAME    = EARTH
REF_FRAME      = TEME
TIME_SYSTEM    = UTC
MEAN_ELEMENT_THEORY = SGP/SGP4

EPOCH          = 2025-11-26T14:36:43.272288
MEAN_MOTION    = 15.84101701
ECCENTRICITY   = .0005329
INCLINATION    = 42.9975
RA_OF_ASC_NODE = 166.8351
ARG_OF_PERICENTER = 288.5961
MEAN_ANOMALY   = 71.4332

EPHEMERIS_TYPE = 0
CLASSIFICATION_TYPE = U
NORAD_CAT_ID   = 66472
ELEMENT_SET_NO = 999
REV_AT_EPOCH   = 304
BSTAR          = -.38559E-3
MEAN_MOTION_DOT = -.89361E-3
MEAN_MOTION_DDOT = 0

CCSDS_OMM_VERS = 2.0
CREATION_DATE  = 
ORIGINATOR     = 

OBJECT_NAME    = STARLINK-35568
OBJECT_ID      = 2025-262T
CENTER_NAME    = EARTH
REF_FRAME      = TEME
TIME_SYSTEM    = UTC
MEAN_ELEMENT_THEORY = SGP/SGP4

EPOCH          = 2025-11-26T14:36:06.003648
MEAN_MOTION    = 15.85183028
ECCENTRICITY   = .0007443
INCLINATION    = 42.9975
RA_OF_ASC_NODE = 166.8316
ARG_OF_PERICENTER = 236.5915
MEAN_ANOMALY   = 123.4246

EPHEMERIS_TYPE = 0
CLASSIFICATION_TYPE = U
NORAD_CAT_ID   = 66473
ELEMENT_SET_NO = 999
REV_AT_EPOCH   = 304
BSTAR          = .23956E-2
MEAN_MOTION_DOT = .630519E-2
MEAN_MOTION_DDOT = 0

CCSDS_OMM_VERS = 2.0
CREATION_DATE  = 
ORIGINATOR     = 

OBJECT_NAME    = STARLINK-35620
OBJECT_ID      = 2025-262U
CENTER_NAME    = EARTH
REF_FRAME      = TEME
TIME_SYSTEM    = UTC
MEAN_ELEMENT_THEORY = SGP/SGP4

EPOCH          = 2025-11-26T14:35:31.650144
MEAN_MOTION    = 15.85813573
ECCENTRICITY   = .0009458
INCLINATION    = 42.9975
RA_OF_ASC_NODE = 166.8280
ARG_OF_PERICENTER = 234.7801
MEAN_ANOMALY   = 125.2187

EPHEMERIS_TYPE = 0
CLASSIFICATION_TYPE = U
NORAD_CAT_ID   = 66474
ELEMENT_SET_NO = 999
REV_AT_EPOCH   = 304
BSTAR          = .20349E-2
MEAN_MOTION_DOT = .547401E-2
MEAN_MOTION_DDOT = 0

CCSDS_OMM_VERS = 2.0
CREATION_DATE  = 
ORIGINATOR     = 

OBJECT_NAME    = STARLINK-35538
OBJECT_ID      = 2025-262V
CENTER_NAME    = EARTH
REF_FRAME      = TEME
TIME_SYSTEM    = UTC
MEAN_ELEMENT_THEORY = SGP/SGP4

EPOCH          = 2025-11-26T14:34:54.244992
MEAN_MOTION    = 15.84026796
ECCENTRICITY   = .0005161
INCLINATION    = 42.9975
RA_OF_ASC_NODE = 166.8238
ARG_OF_PERICENTER = 284.4931
MEAN_ANOMALY   = 75.5369

EPHEMERIS_TYPE = 0
CLASSIFICATION_TYPE = U
NORAD_CAT_ID   = 66475
ELEMENT_SET_NO = 999
REV_AT_EPOCH   = 304
BSTAR          = .11917E-2
MEAN_MOTION_DOT = .284761E-2
MEAN_MOTION_DDOT = 0

CCSDS_OMM_VERS = 2.0
CREATION_DATE  = 
ORIGINATOR     = 

OBJECT_NAME    = STARLINK-35372
OBJECT_ID      = 2025-262W
CENTER_NAME    = EARTH
REF_FRAME      = TEME
TIME_SYSTEM    = UTC
MEAN_ELEMENT_THEORY = SGP/SGP4

EPOCH          = 2025-11-26T14:34:19.079328
MEAN_MOTION    = 15.85156815
ECCENTRICITY   = .000722
INCLINATION    = 42.9971
RA_OF_ASC_NODE = 166.8207
ARG_OF_PERICENTER = 236.7048
MEAN_ANOMALY   = 123.3133

EPHEMERIS_TYPE = 0
CLASSIFICATION_TYPE = U
NORAD_CAT_ID   = 66476
ELEMENT_SET_NO = 999
REV_AT_EPOCH   = 293
BSTAR          = .22317E-2
MEAN_MOTION_DOT = .583423E-2
MEAN_MOTION_DDOT = 0

CCSDS_OMM_VERS = 2.0
CREATION_DATE  = 
ORIGINATOR     = 

OBJECT_NAME    = STARLINK-35354
OBJECT_ID      = 2025-262X
CENTER_NAME    = EARTH
REF_FRAME      = TEME
TIME_SYSTEM    = UTC
MEAN_ELEMENT_THEORY = SGP/SGP4

EPOCH          = 2025-11-26T14:32:57.014016
MEAN_MOTION    = 15.83991707
ECCENTRICITY   = .0004754
INCLINATION    = 42.9974
RA_OF_ASC_NODE = 166.8127
ARG_OF_PERICENTER = 286.2442
MEAN_ANOMALY   = 73.7908

EPHEMERIS_TYPE = 0
CLASSIFICATION_TYPE = U
NORAD_CAT_ID   = 66477
ELEMENT_SET_NO = 999
REV_AT_EPOCH   = 304
BSTAR          = .43193E-3
MEAN_MOTION_DOT = .100522E-2
MEAN_MOTION_DDOT = 0

CCSDS_OMM_VERS = 2.0
CREATION_DATE  = 
ORIGINATOR     = 

OBJECT_NAME    = STARLINK-35283
OBJECT_ID      = 2025-262Y
CENTER_NAME    = EARTH
REF_FRAME      = TEME
TIME_SYSTEM    = UTC
MEAN_ELEMENT_THEORY = SGP/SGP4

EPOCH          = 2025-11-26T14:32:17.939616
MEAN_MOTION    = 15.85149864
ECCENTRICITY   = .0007417
INCLINATION    = 42.9970
RA_OF_ASC_NODE = 166.8083
ARG_OF_PERICENTER = 223.9768
MEAN_ANOMALY   = 136.0515

EPHEMERIS_TYPE = 0
CLASSIFICATION_TYPE = U
NORAD_CAT_ID   = 66478
ELEMENT_SET_NO = 999
REV_AT_EPOCH   = 304
BSTAR          = .23901E-2
MEAN_MOTION_DOT = .627891E-2
MEAN_MOTION_DDOT = 0

CCSDS_OMM_VERS = 2.0
CREATION_DATE  = 
ORIGINATOR     = 

OBJECT_NAME    = STARLINK-35581
OBJECT_ID      = 2025-262Z
CENTER_NAME    = EARTH
REF_FRAME      = TEME
TIME_SYSTEM    = UTC
MEAN_ELEMENT_THEORY = SGP/SGP4

EPOCH          = 2025-11-26T14:33:38.346048
MEAN_MOTION    = 15.85121494
ECCENTRICITY   = .0007334
INCLINATION    = 42.9970
RA_OF_ASC_NODE = 166.8168
ARG_OF_PERICENTER = 239.5463
MEAN_ANOMALY   = 120.4686

EPHEMERIS_TYPE = 0
CLASSIFICATION_TYPE = U
NORAD_CAT_ID   = 66479
ELEMENT_SET_NO = 999
REV_AT_EPOCH   = 304
BSTAR          = .21398E-2
MEAN_MOTION_DOT = .556753E-2
MEAN_MOTION_DDOT = 0

CCSDS_OMM_VERS = 2.0
CREATION_DATE  = 
ORIGINATOR     = 

OBJECT_NAME    = STARLINK-35670
OBJECT_ID      = 2025-262AA
CENTER_NAME    = EARTH
REF_FRAME      = TEME
TIME_SYSTEM    = UTC
MEAN_ELEMENT_THEORY = SGP/SGP4

EPOCH          = 2025-11-26T14:31:43.097088
MEAN_MOTION    = 15.85311775
ECCENTRICITY   = .0008161
INCLINATION    = 42.9972
RA_OF_ASC_NODE = 166.8050
ARG_OF_PERICENTER = 225.3035
MEAN_ANOMALY   = 134.7174

EPHEMERIS_TYPE = 0
CLASSIFICATION_TYPE = U
NORAD_CAT_ID   = 66480
ELEMENT_SET_NO = 999
REV_AT_EPOCH   = 304
BSTAR          = .17808E-2
MEAN_MOTION_DOT = .462708E-2
MEAN_MOTION_DDOT = 0

CCSDS_OMM_VERS = 2.0
CREATION_DATE  = 
ORIGINATOR     = 

OBJECT_NAME    = STARLINK-35698
OBJECT_ID      = 2025-262AB
CENTER_NAME    = EARTH
REF_FRAME      = TEME
TIME_SYSTEM    = UTC
MEAN_ELEMENT_THEORY = SGP/SGP4

EPOCH          = 2025-11-26T14:31:04.427904
MEAN_MOTION    = 15.83919246
ECCENTRICITY   = .0004415
INCLINATION    = 42.9971
RA_OF_ASC_NODE = 166.8006
ARG_OF_PERICENTER = 284.5142
MEAN_ANOMALY   = 75.5241

EPHEMERIS_TYPE = 0
CLASSIFICATION_TYPE = U
NORAD_CAT_ID   = 66481
ELEMENT_SET_NO = 999
REV_AT_EPOCH   = 304
BSTAR          = .11E-2
MEAN_MOTION_DOT = .260689E-2
MEAN_MOTION_DDOT = 0

